[{"OBJECT_NAME":"STARLINK-37148","OBJECT_ID":"2026-057S","EPOCH":"2026-04-05T14:00:03.000384","MEAN_MOTION":15.80735516,"ECCENTRICITY":0.00012856,"INCLINATION":97.2784,"RA_OF_ASC_NODE":219.3055,"ARG_OF_PERICENTER":87.1553,"MEAN_ANOMALY":309.9068,"EPHEMERIS_TYPE":0,"CLASSIFICATION_TYPE":"U","NORAD_CAT_ID":68310,"ELEMENT_SET_NO":999,"REV_AT_EPOCH":358,"BSTAR":0.00089702573,"MEAN_MOTION_DOT":0.00174518,"MEAN_MOTION_DDOT":0},{"OBJECT_NAME":"STARLINK-37140","OBJECT_ID":"2026-057T","EPOCH":"2026-04-05T14:00:03.000384","MEAN_MOTION":15.8080102,"ECCENTRICITY":7.879e-5,"INCLINATION":97.279,"RA_OF_ASC_NODE":219.3045,"ARG_OF_PERICENTER":87.4963,"MEAN_ANOMALY":305.2978,"EPHEMERIS_TYPE":0,"CLASSIFICATION_TYPE":"U","NORAD_CAT_ID":68311,"ELEMENT_SET_NO":999,"REV_AT_EPOCH":374,"BSTAR":9.9967853e-5,"MEAN_MOTION_DOT":0.00019035,"MEAN_MOTION_DDOT":0},{"OBJECT_NAME":"STARLINK-36854","OBJECT_ID":"2026-057U","EPOCH":"2026-04-05T14:00:03.000384","MEAN_MOTION":15.80725568,"ECCENTRICITY":0.00012837,"INCLINATION":97.2784,"RA_OF_ASC_NODE":219.308,"ARG_OF_PERICENTER":89.8457,"MEAN_ANOMALY":311.4863,"EPHEMERIS_TYPE":0,"CLASSIFICATION_TYPE":"U","NORAD_CAT_ID":68312,"ELEMENT_SET_NO":999,"REV_AT_EPOCH":353,"BSTAR":0.00095781038,"MEAN_MOTION_DOT":0.00186528,"MEAN_MOTION_DDOT":0},{"OBJECT_NAME":"STARLINK-36815","OBJECT_ID":"2026-057V","EPOCH":"2026-04-05T14:00:03.000384","MEAN_MOTION":15.80801278,"ECCENTRICITY":7.839e-5,"INCLINATION":97.2785,"RA_OF_ASC_NODE":219.31,"ARG_OF_PERICENTER":79.4212,"MEAN_ANOMALY":326.1964,"EPHEMERIS_TYPE":0,"CLASSIFICATION_TYPE":"U","NORAD_CAT_ID":68313,"ELEMENT_SET_NO":999,"REV_AT_EPOCH":353,"BSTAR":7.8939535e-5,"MEAN_MOTION_DOT":0.00014994,"MEAN_MOTION_DDOT":0},{"OBJECT_NAME":"STARLINK-37155","OBJECT_ID":"2026-057W","EPOCH":"2026-04-05T14:00:03.000384","MEAN_MOTION":15.80804085,"ECCENTRICITY":9.177e-5,"INCLINATION":97.2773,"RA_OF_ASC_NODE":219.3133,"ARG_OF_PERICENTER":55.3113,"MEAN_ANOMALY":358.8457,"EPHEMERIS_TYPE":0,"CLASSIFICATION_TYPE":"U","NORAD_CAT_ID":68314,"ELEMENT_SET_NO":999,"REV_AT_EPOCH":358,"BSTAR":0.00011277953,"MEAN_MOTION_DOT":0.00021502,"MEAN_MOTION_DDOT":0},{"OBJECT_NAME":"STARLINK-37150","OBJECT_ID":"2026-057X","EPOCH":"2026-04-05T14:00:03.000384","MEAN_MOTION":15.80752138,"ECCENTRICITY":7.942e-5,"INCLINATION":97.2778,"RA_OF_ASC_NODE":219.3116,"ARG_OF_PERICENTER":45.1606,"MEAN_ANOMALY":4.7173,"EPHEMERIS_TYPE":0,"CLASSIFICATION_TYPE":"U","NORAD_CAT_ID":68315,"ELEMENT_SET_NO":999,"REV_AT_EPOCH":358,"BSTAR":0.00076118576,"MEAN_MOTION_DOT":0.00147722,"MEAN_MOTION_DDOT":0},{"OBJECT_NAME":"STARLINK-37154","OBJECT_ID":"2026-057Y","EPOCH":"2026-04-05T14:00:03.000384","MEAN_MOTION":15.80840789,"ECCENTRICITY":8.688e-5,"INCLINATION":97.2764,"RA_OF_ASC_NODE":219.3162,"ARG_OF_PERICENTER":48.1362,"MEAN_ANOMALY":14.5656,"EPHEMERIS_TYPE":0,"CLASSIFICATION_TYPE":"U","NORAD_CAT_ID":68316,"ELEMENT_SET_NO":999,"REV_AT_EPOCH":348,"BSTAR":-0.00028223818,"MEAN_MOTION_DOT":-0.00053929,"MEAN_MOTION_DDOT":0},{"OBJECT_NAME":"STARLINK-37139","OBJECT_ID":"2026-057Z","EPOCH":"2026-04-05T14:00:03.000384","MEAN_MOTION":15.80811147,"ECCENTRICITY":0.00016265,"INCLINATION":97.2769,"RA_OF_ASC_NODE":219.3146,"ARG_OF_PERICENTER":73.7797,"MEAN_ANOMALY":344.6435,"EPHEMERIS_TYPE":0,"CLASSIFICATION_TYPE":"U","NORAD_CAT_ID":68317,"ELEMENT_SET_NO":999,"REV_AT_EPOCH":333,"BSTAR":9.2281739e-5,"MEAN_MOTION_DOT":0.00017567,"MEAN_MOTION_DDOT":0},{"OBJECT_NAME":"STARLINK-37113","OBJECT_ID":"2026-057AA","EPOCH":"2026-04-05T14:00:03.000384","MEAN_MOTION":15.80788103,"ECCENTRICITY":0.00015652,"INCLINATION":97.2763,"RA_OF_ASC_NODE":219.3179,"ARG_OF_PERICENTER":82.6338,"MEAN_ANOMALY":344.3507,"EPHEMERIS_TYPE":0,"CLASSIFICATION_TYPE":"U","NORAD_CAT_ID":68318,"ELEMENT_SET_NO":999,"REV_AT_EPOCH":358,"BSTAR":0.00023879276,"MEAN_MOTION_DOT":0.00045781,"MEAN_MOTION_DDOT":0},{"OBJECT_NAME":"PROGRESS-MS 33","OBJECT_ID":"2026-058A","EPOCH":"2026-04-05T13:16:46.804800","MEAN_MOTION":15.4878698,"ECCENTRICITY":0.00063514,"INCLINATION":51.6328,"RA_OF_ASC_NODE":299.5432,"ARG_OF_PERICENTER":274.8255,"MEAN_ANOMALY":85.2008,"EPHEMERIS_TYPE":0,"CLASSIFICATION_TYPE":"U","NORAD_CAT_ID":68319,"ELEMENT_SET_NO":999,"REV_AT_EPOCH":189,"BSTAR":0.00016419769,"MEAN_MOTION_DOT":8.543e-5,"MEAN_MOTION_DDOT":0},{"OBJECT_NAME":"STARLINK-36987","OBJECT_ID":"2026-059A","EPOCH":"2026-04-05T11:57:05.197248","MEAN_MOTION":15.80970414,"ECCENTRICITY":0.00015587,"INCLINATION":53.1596,"RA_OF_ASC_NODE":228.5389,"ARG_OF_PERICENTER":130.5519,"MEAN_ANOMALY":229.5639,"EPHEMERIS_TYPE":0,"CLASSIFICATION_TYPE":"U","NORAD_CAT_ID":68321,"ELEMENT_SET_NO":999,"REV_AT_EPOCH":221,"BSTAR":0.00076669618,"MEAN_MOTION_DOT":0.00154043,"MEAN_MOTION_DDOT":0},{"OBJECT_NAME":"STARLINK-37088","OBJECT_ID":"2026-059B","EPOCH":"2026-04-05T13:25:57.437184","MEAN_MOTION":15.8104498,"ECCENTRICITY":0.00010179,"INCLINATION":53.1599,"RA_OF_ASC_NODE":228.2117,"ARG_OF_PERICENTER":38.2122,"MEAN_ANOMALY":321.8973,"EPHEMERIS_TYPE":0,"CLASSIFICATION_TYPE":"U","NORAD_CAT_ID":68322,"ELEMENT_SET_NO":999,"REV_AT_EPOCH":222,"BSTAR":0.0016225923,"MEAN_MOTION_DOT":0.00334932,"MEAN_MOTION_DDOT":0},{"OBJECT_NAME":"STARLINK-36983","OBJECT_ID":"2026-059C","EPOCH":"2026-04-05T13:27:02.628576","MEAN_MOTION":15.81028453,"ECCENTRICITY":0.00017611,"INCLINATION":53.1594,"RA_OF_ASC_NODE":228.2164,"ARG_OF_PERICENTER":71.6017,"MEAN_ANOMALY":288.5197,"EPHEMERIS_TYPE":0,"CLASSIFICATION_TYPE":"U","NORAD_CAT_ID":68323,"ELEMENT_SET_NO":999,"REV_AT_EPOCH":222,"BSTAR":0.0013016713,"MEAN_MOTION_DOT":0.00266186,"MEAN_MOTION_DDOT":0},{"OBJECT_NAME":"STARLINK-37164","OBJECT_ID":"2026-059D","EPOCH":"2026-04-05T13:24:52.476480","MEAN_MOTION":15.80998494,"ECCENTRICITY":0.00013033,"INCLINATION":53.1595,"RA_OF_ASC_NODE":228.2054,"ARG_OF_PERICENTER":158.8283,"MEAN_ANOMALY":201.2794,"EPHEMERIS_TYPE":0,"CLASSIFICATION_TYPE":"U","NORAD_CAT_ID":68324,"ELEMENT_SET_NO":999,"REV_AT_EPOCH":335,"BSTAR":0.0011792228,"MEAN_MOTION_DOT":0.00240009,"MEAN_MOTION_DDOT":0},{"OBJECT_NAME":"STARLINK-36309","OBJECT_ID":"2026-059E","EPOCH":"2026-04-05T13:23:47.832000","MEAN_MOTION":15.80995049,"ECCENTRICITY":7.375e-5,"INCLINATION":53.16,"RA_OF_ASC_NODE":228.2017,"ARG_OF_PERICENTER":131.205,"MEAN_ANOMALY":228.9037,"EPHEMERIS_TYPE":0,"CLASSIFICATION_TYPE":"U","NORAD_CAT_ID":68325,"ELEMENT_SET_NO":999,"REV_AT_EPOCH":222,"BSTAR":0.0012039386,"MEAN_MOTION_DOT":0.00245167,"MEAN_MOTION_DDOT":0},{"OBJECT_NAME":"STARLINK-37206","OBJECT_ID":"2026-059F","EPOCH":"2026-04-05T14:53:45.046464","MEAN_MOTION":15.81013554,"ECCENTRICITY":0.00012601,"INCLINATION":53.1599,"RA_OF_ASC_NODE":227.8793,"ARG_OF_PERICENTER":37.9397,"MEAN_ANOMALY":322.1714,"EPHEMERIS_TYPE":0,"CLASSIFICATION_TYPE":"U","NORAD_CAT_ID":68326,"ELEMENT_SET_NO":999,"REV_AT_EPOCH":223,"BSTAR":0.001490208,"MEAN_MOTION_DOT":0.0030606,"MEAN_MOTION_DDOT":0}]
