STARLINK-37148          
1 68310U 26057S   26095.58336806  .00174518  00000+0  89703-3 0  9994
2 68310  97.2784 219.3055 0001285  87.1553 309.9068 15.80735516  3589
STARLINK-37140          
1 68311U 26057T   26095.58336806  .00019035  00000+0  99968-4 0  9992
2 68311  97.2790 219.3045 0000787  87.4963 305.2978 15.80801020  3741
STARLINK-36854          
1 68312U 26057U   26095.58336806  .00186528  00000+0  95781-3 0  9993
2 68312  97.2784 219.3080 0001283  89.8457 311.4863 15.80725568  3531
STARLINK-36815          
1 68313U 26057V   26095.58336806  .00014994  00000+0  78940-4 0  9990
2 68313  97.2785 219.3100 0000783  79.4212 326.1964 15.80801278  3532
STARLINK-37155          
1 68314U 26057W   26095.58336806  .00021502  00000+0  11278-3 0  9994
2 68314  97.2773 219.3133 0000917  55.3113 358.8457 15.80804085  3581
STARLINK-37150          
1 68315U 26057X   26095.58336806  .00147722  00000+0  76119-3 0  9993
2 68315  97.2778 219.3116 0000794  45.1606   4.7173 15.80752138  3588
STARLINK-37154          
1 68316U 26057Y   26095.58336806 -.00053929  00000+0 -28224-3 0  9995
2 68316  97.2764 219.3162 0000868  48.1362  14.5656 15.80840789  3483
STARLINK-37139          
1 68317U 26057Z   26095.58336806  .00017567  00000+0  92282-4 0  9998
2 68317  97.2769 219.3146 0001626  73.7797 344.6435 15.80811147  3332
STARLINK-37113          
1 68318U 26057AA  26095.58336806  .00045781  00000+0  23879-3 0  9993
2 68318  97.2763 219.3179 0001565  82.6338 344.3507 15.80788103  3584
PROGRESS-MS 33          
1 68319U 26058A   26095.55331950  .00008543  00000+0  16420-3 0  9996
2 68319  51.6328 299.5432 0006351 274.8255  85.2008 15.48786980  1893
STARLINK-36987          
1 68321U 26059A   26095.49797682  .00154043  00000+0  76670-3 0  9991
2 68321  53.1596 228.5389 0001558 130.5519 229.5639 15.80970414  2211
STARLINK-37088          
1 68322U 26059B   26095.55969256  .00334932  00000+0  16226-2 0  9994
2 68322  53.1599 228.2117 0001017  38.2122 321.8973 15.81044980  2224
STARLINK-36983          
1 68323U 26059C   26095.56044709  .00266186  00000+0  13017-2 0  9993
2 68323  53.1594 228.2164 0001761  71.6017 288.5197 15.81028453  2226
STARLINK-37164          
1 68324U 26059D   26095.55894070  .00240009  00000+0  11792-2 0  9991
2 68324  53.1595 228.2054 0001303 158.8283 201.2794 15.80998494  3351
STARLINK-36309          
1 68325U 26059E   26095.55819250  .00245167  00000+0  12039-2 0  9994
2 68325  53.1600 228.2017 0000737 131.2050 228.9037 15.80995049  2229
STARLINK-37206          
1 68326U 26059F   26095.62066026  .00306060  00000+0  14902-2 0  9999
2 68326  53.1599 227.8793 0001260  37.9397 322.1714 15.81013554  2234
